[{"OBJECT_NAME":"STARLINK-35756","OBJECT_ID":"2025-303N","EPOCH":"2026-03-09T00:46:39.265824","MEAN_MOTION":15.27573218,"ECCENTRICITY":0.00012467,"INCLINATION":42.9985,"RA_OF_ASC_NODE":314.508,"ARG_OF_PERICENTER":282.7814,"MEAN_ANOMALY":77.2899,"EPHEMERIS_TYPE":0,"CLASSIFICATION_TYPE":"U","NORAD_CAT_ID":67175,"ELEMENT_SET_NO":999,"REV_AT_EPOCH":1263,"BSTAR":0.0014360744,"MEAN_MOTION_DOT":0.00039459,"MEAN_MOTION_DDOT":0},{"OBJECT_NAME":"CZ-6A DEB","OBJECT_ID":"2022-151ME","EPOCH":"2026-03-09T17:07:50.636064","MEAN_MOTION":15.20556855,"ECCENTRICITY":0.00283971,"INCLINATION":98.6182,"RA_OF_ASC_NODE":149.2426,"ARG_OF_PERICENTER":178.5587,"MEAN_ANOMALY":181.5732,"EPHEMERIS_TYPE":0,"CLASSIFICATION_TYPE":"U","NORAD_CAT_ID":54578,"ELEMENT_SET_NO":999,"REV_AT_EPOCH":10518,"BSTAR":0.0077423675,"MEAN_MOTION_DOT":0.00175116,"MEAN_MOTION_DDOT":0}]
